EYESAT A (AO-27)        
1 22825U 93061C   26183.59287117  .00000133  00000+0  67579-4 0  9992
2 22825  98.6875 251.0004 0009336  59.8657 300.3450 14.30946419709201
ITAMSAT (IO-26)         
1 22826U 93061D   26183.63758890  .00000132  00000+0  66678-4 0  9997
2 22826  98.6822 250.9642 0009642  44.3148 315.8806 14.31373734709520
RADIO ROSTO (RS15)      
1 23439U 94085A   26183.81395042 -.00000021  00000+0  60439-3 0  9997
2 23439  64.8178 277.9441 0156471   0.9878 359.1328 11.27583443297666
JAS-2 (FO-29)           
1 24278U 96046B   26183.83715120 -.00000028  00000+0  57561-5 0  9994
2 24278  98.5226  30.5644 0350781  55.9383 307.4537 13.53274951475281
FORTE                   
1 24920U 97047A   26183.85588496  .00000213  00000+0  10898-3 0  9991
2 24920  69.9544 338.6284 0024600 258.4099 101.4262 14.27951550500920
TECHSAT 1B (GO-32)      
1 25397U 98043D   26183.86904904  .00000053  00000+0  42977-4 0  9990
2 25397  99.0074 177.0235 0001780 134.6871 225.4453 14.24431396453563
ISS (ZARYA)             
1 25544U 98067A   26182.50817465  .00006185  00000+0  11827-3 0  9996
2 25544  51.6311 229.1989 0004224 255.0896 104.9625 15.49503254573972
IMAGE                   
1 26113U 00017A   26181.91168621 -.00000033  00000+0  00000+0 0  9998
2 26113  94.2398 315.5527 7422471 286.2504   9.4555  1.68666270161730
CLUSTER II-FM7 (SAMBA)  
1 26410U 00041A   26183.75752675  .00012787  00000+0  00000+0 0  9995
2 26410 149.8840  53.4423 9072869 270.8480 359.6360  0.44834504 20376
CLUSTER II-FM8 (TANGO)  
1 26464U 00045B   26181.94601251  .00015784  00000+0  00000+0 0  9990
2 26464 150.1096  54.2616 9074787 271.4997   2.3331  0.44420098 20376
ODIN                    
1 26702U 01007A   26183.37126976  .00265335  00000+0  12669-2 0  9995
2 26702  97.3774 225.3490 0005921 136.8623 223.3110 15.82090808391799
OMNI-M1                 
1 26857U 01026A   26183.00645506  .00000007  00000+0  00000+0 0  9998
2 26857  44.8270 241.8483 0013799  56.1769 304.0224  3.92402003206150
PCSAT (NO-44)           
1 26931U 01043C   26183.45542852  .00000104  00000+0  69838-4 0  9996
2 26931  67.0489 204.7811 0006018 265.5934  94.4481 14.31961164292637
PROBA-1                 
1 26958U 01049B   26184.66407927  .00001350  00000+0  90191-4 0  9998
2 26958  97.9593 193.7726 0056476  67.8438 292.8769 15.07566074346101
SAUDISAT 1C (SO-50)     
1 27607U 02058C   26183.86686710  .00000945  00000+0  12865-3 0  9991
2 27607  64.5520  80.4726 0074878 259.5465  99.7197 14.83079029266787
CORIOLIS                
1 27640U 03001A   26183.91087116  .00000112  00000+0  73069-4 0  9998
2 27640  98.7127 190.5557 0014293 162.9872 197.1786 14.19949084216457
CUTE-1 (CO-55)          
1 27844U 03031E   26183.84293221  .00000336  00000+0  16430-3 0  9991
2 27844  98.6736 192.2049 0010444 134.8646 225.3383 14.24345535193902
CUBESAT XI-IV (CO-57)   
1 27848U 03031J   26183.76896903  .00000279  00000+0  14166-3 0  9992
2 27848  98.6769 191.8320 0009989 152.4134 207.7577 14.23629228193596
MOZHAETS 4 (RS22)       
1 27939U 03042A   26184.64627509  .00001233  00000+0  19797-3 0  9993
2 27939  98.3468   9.4700 0010375 211.3207 213.2425 14.73497913217975
